[{"OBJECT_NAME":"JY1SAT (JO-97)","OBJECT_ID":"2018-099AX","EPOCH":"2026-03-09T16:28:19.890048","MEAN_MOTION":15.30302629,"ECCENTRICITY":0.00047232,"INCLINATION":97.4249,"RA_OF_ASC_NODE":131.3625,"ARG_OF_PERICENTER":256.6795,"MEAN_ANOMALY":103.3919,"EPHEMERIS_TYPE":0,"CLASSIFICATION_TYPE":"U","NORAD_CAT_ID":43803,"ELEMENT_SET_NO":999,"REV_AT_EPOCH":39839,"BSTAR":0.00060804308,"MEAN_MOTION_DOT":0.00017774,"MEAN_MOTION_DDOT":0},{"OBJECT_NAME":"STARLINK-30814","OBJECT_ID":"2023-166R","EPOCH":"2026-03-09T16:36:46.593216","MEAN_MOTION":15.30205128,"ECCENTRICITY":7.947e-5,"INCLINATION":53.1605,"RA_OF_ASC_NODE":219.3221,"ARG_OF_PERICENTER":79.5515,"MEAN_ANOMALY":280.5576,"EPHEMERIS_TYPE":0,"CLASSIFICATION_TYPE":"U","NORAD_CAT_ID":58165,"ELEMENT_SET_NO":999,"REV_AT_EPOCH":13318,"BSTAR":-6.6281142e-5,"MEAN_MOTION_DOT":-2.322e-5,"MEAN_MOTION_DDOT":0}]
